OBJECT_NAME,OBJECT_ID,EPOCH,MEAN_MOTION,ECCENTRICITY,INCLINATION,RA_OF_ASC_NODE,ARG_OF_PERICENTER,MEAN_ANOMALY,EPHEMERIS_TYPE,CLASSIFICATION_TYPE,NORAD_CAT_ID,ELEMENT_SET_NO,REV_AT_EPOCH,BSTAR,MEAN_MOTION_DOT,MEAN_MOTION_DDOT
INNOSAT 3 (RS92S0),2025-155U,2026-06-22T19:42:48.396672,15.44173310,.00072695,97.4486,145.4532,137.9921,222.1886,0,U,64894,999,8183,.6919397E-3,.31748E-3,0
KNACKSAT-2,1998-067XZ,2026-06-22T12:55:41.728224,15.60406263,.00087704,51.6293,267.5508,238.8673,121.1461,0,U,67683,999,2111,.46548365E-3,.38699E-3,0
