INNOSAT 3 (RS92S0)      
1 64894U 25155U   26173.82139348  .00031748  00000+0  69194-3 0  9990
2 64894  97.4486 145.4532 0007269 137.9921 222.1886 15.44173310 81839
KNACKSAT-2              
1 67683U 98067XZ  26173.53867741  .00038699  00000+0  46548-3 0  9994
2 67683  51.6293 267.5508 0008770 238.8673 121.1461 15.60406263 21114
